STARLINK-36597          
1 67613U 26018AA  26058.83335648  .00033279  00000+0  22309-3 0  9993
2 67613  97.2848 124.2678 0001535 100.5388 249.1600 15.75192732  5775
NEONSAT-1A              
1 67614U 26019A   26058.89092117  .00005046  00000+0  33403-3 0  9990
2 67614  97.4103 182.8201 0012966 202.8465 157.2188 15.07699591  4348
ELECTRON KICK STAGE R/B 
1 67616U 26019C   26058.88751060  .00621239  13073-3  20469-2 0  9993
2 67616  97.3994 185.2601 0135290 156.8522 203.8918 15.77125979  4504
STARLINK-36548          
1 67617U 26020A   26058.67080224  .00317656  00000+0  18761-2 0  9999
2 67617  42.9987 203.1738 0000680 234.8063 125.2743 15.76429884  4509
STARLINK-36601          
1 67618U 26020B   26058.75372624  .00267462  00000+0  15875-2 0  9999
2 67618  43.0030 202.0501 0002855 276.5978  83.4567 15.76459965  4525
STARLINK-36119          
1 67619U 26020C   26058.73197126  .00207352  00000+0  12421-2 0  9996
2 67619  42.9972 202.7727 0001486 281.3296  78.7407 15.76427030  4519
STARLINK-36607          
1 67620U 26020D   26058.44788084  .00384887  00000+0  22566-2 0  9995
2 67620  42.9988 204.0640 0001412 261.1335  98.9374 15.76408148  4477
STARLINK-36615          
1 67621U 26020E   26058.83335648  .00160192  00000+0  97182-3 0  9991
2 67621  42.9992 201.4434 0001706 276.1882 226.1005 15.76282230  5800
STARLINK-36614          
1 67622U 26020F   26058.79095282  .00227390  00000+0  13581-2 0  9998
2 67622  42.9985 202.3507 0001399 277.7918  82.2793 15.76434908  4523
STARLINK-36600          
1 67623U 26020G   26058.79314162  .00253750  00000+0  15095-2 0  9991
2 67623  42.9986 202.3688 0001626 293.9059  66.1640 15.76449910  4525
STARLINK-36439          
1 67624U 26020H   26058.71883320  .00339458  00000+0  19956-2 0  9991
2 67624  43.0001 202.6646 0002291 290.0729  69.9894 15.76474886  4515
STARLINK-36438          
1 67625U 26020J   26058.72539787  .00271418  00000+0  16090-2 0  9995
2 67625  43.0013 202.7193 0003765 285.2787  74.7666 15.76474124  4510
