CCSDS_OMM_VERS = 2.0
CREATION_DATE  = 
ORIGINATOR     = 

OBJECT_NAME    = STARLINK-36597
OBJECT_ID      = 2026-018AA
CENTER_NAME    = EARTH
REF_FRAME      = TEME
TIME_SYSTEM    = UTC
MEAN_ELEMENT_THEORY = SGP/SGP4

EPOCH          = 2026-02-27T20:00:01.999872
MEAN_MOTION    = 15.75192732
ECCENTRICITY   = .00015359
INCLINATION    = 97.2848
RA_OF_ASC_NODE = 124.2678
ARG_OF_PERICENTER = 100.5388
MEAN_ANOMALY   = 249.1600

EPHEMERIS_TYPE = 0
CLASSIFICATION_TYPE = U
NORAD_CAT_ID   = 67613
ELEMENT_SET_NO = 999
REV_AT_EPOCH   = 577
BSTAR          = .22308911E-3
MEAN_MOTION_DOT = .33279E-3
MEAN_MOTION_DDOT = 0

CCSDS_OMM_VERS = 2.0
CREATION_DATE  = 
ORIGINATOR     = 

OBJECT_NAME    = NEONSAT-1A
OBJECT_ID      = 2026-019A
CENTER_NAME    = EARTH
REF_FRAME      = TEME
TIME_SYSTEM    = UTC
MEAN_ELEMENT_THEORY = SGP/SGP4

EPOCH          = 2026-02-27T21:22:55.589088
MEAN_MOTION    = 15.07699591
ECCENTRICITY   = .00129664
INCLINATION    = 97.4103
RA_OF_ASC_NODE = 182.8201
ARG_OF_PERICENTER = 202.8465
MEAN_ANOMALY   = 157.2188

EPHEMERIS_TYPE = 0
CLASSIFICATION_TYPE = U
NORAD_CAT_ID   = 67614
ELEMENT_SET_NO = 999
REV_AT_EPOCH   = 434
BSTAR          = .33403447E-3
MEAN_MOTION_DOT = .5046E-4
MEAN_MOTION_DDOT = 0

CCSDS_OMM_VERS = 2.0
CREATION_DATE  = 
ORIGINATOR     = 

OBJECT_NAME    = ELECTRON KICK STAGE R/B
OBJECT_ID      = 2026-019C
CENTER_NAME    = EARTH
REF_FRAME      = TEME
TIME_SYSTEM    = UTC
MEAN_ELEMENT_THEORY = SGP/SGP4

EPOCH          = 2026-02-27T21:18:00.915840
MEAN_MOTION    = 15.77125979
ECCENTRICITY   = .01352903
INCLINATION    = 97.3994
RA_OF_ASC_NODE = 185.2601
ARG_OF_PERICENTER = 156.8522
MEAN_ANOMALY   = 203.8918

EPHEMERIS_TYPE = 0
CLASSIFICATION_TYPE = U
NORAD_CAT_ID   = 67616
ELEMENT_SET_NO = 999
REV_AT_EPOCH   = 450
BSTAR          = .20469093E-2
MEAN_MOTION_DOT = .621239E-2
MEAN_MOTION_DDOT = .13072919E-3

CCSDS_OMM_VERS = 2.0
CREATION_DATE  = 
ORIGINATOR     = 

OBJECT_NAME    = STARLINK-36548
OBJECT_ID      = 2026-020A
CENTER_NAME    = EARTH
REF_FRAME      = TEME
TIME_SYSTEM    = UTC
MEAN_ELEMENT_THEORY = SGP/SGP4

EPOCH          = 2026-02-27T16:05:57.313536
MEAN_MOTION    = 15.76429884
ECCENTRICITY   = .000068
INCLINATION    = 42.9987
RA_OF_ASC_NODE = 203.1738
ARG_OF_PERICENTER = 234.8063
MEAN_ANOMALY   = 125.2743

EPHEMERIS_TYPE = 0
CLASSIFICATION_TYPE = U
NORAD_CAT_ID   = 67617
ELEMENT_SET_NO = 999
REV_AT_EPOCH   = 450
BSTAR          = .18761269E-2
MEAN_MOTION_DOT = .317656E-2
MEAN_MOTION_DDOT = 0

CCSDS_OMM_VERS = 2.0
CREATION_DATE  = 
ORIGINATOR     = 

OBJECT_NAME    = STARLINK-36601
OBJECT_ID      = 2026-020B
CENTER_NAME    = EARTH
REF_FRAME      = TEME
TIME_SYSTEM    = UTC
MEAN_ELEMENT_THEORY = SGP/SGP4

EPOCH          = 2026-02-27T18:05:21.947136
MEAN_MOTION    = 15.76459965
ECCENTRICITY   = .00028552
INCLINATION    = 43.0030
RA_OF_ASC_NODE = 202.0501
ARG_OF_PERICENTER = 276.5978
MEAN_ANOMALY   = 83.4567

EPHEMERIS_TYPE = 0
CLASSIFICATION_TYPE = U
NORAD_CAT_ID   = 67618
ELEMENT_SET_NO = 999
REV_AT_EPOCH   = 452
BSTAR          = .15874777E-2
MEAN_MOTION_DOT = .267462E-2
MEAN_MOTION_DDOT = 0

CCSDS_OMM_VERS = 2.0
CREATION_DATE  = 
ORIGINATOR     = 

OBJECT_NAME    = STARLINK-36119
OBJECT_ID      = 2026-020C
CENTER_NAME    = EARTH
REF_FRAME      = TEME
TIME_SYSTEM    = UTC
MEAN_ELEMENT_THEORY = SGP/SGP4

EPOCH          = 2026-02-27T17:34:02.316864
MEAN_MOTION    = 15.76427030
ECCENTRICITY   = .0001486
INCLINATION    = 42.9972
RA_OF_ASC_NODE = 202.7727
ARG_OF_PERICENTER = 281.3296
MEAN_ANOMALY   = 78.7407

EPHEMERIS_TYPE = 0
CLASSIFICATION_TYPE = U
NORAD_CAT_ID   = 67619
ELEMENT_SET_NO = 999
REV_AT_EPOCH   = 451
BSTAR          = .12420761E-2
MEAN_MOTION_DOT = .207352E-2
MEAN_MOTION_DDOT = 0

CCSDS_OMM_VERS = 2.0
CREATION_DATE  = 
ORIGINATOR     = 

OBJECT_NAME    = STARLINK-36607
OBJECT_ID      = 2026-020D
CENTER_NAME    = EARTH
REF_FRAME      = TEME
TIME_SYSTEM    = UTC
MEAN_ELEMENT_THEORY = SGP/SGP4

EPOCH          = 2026-02-27T10:44:56.904576
MEAN_MOTION    = 15.76408148
ECCENTRICITY   = .00014124
INCLINATION    = 42.9988
RA_OF_ASC_NODE = 204.0640
ARG_OF_PERICENTER = 261.1335
MEAN_ANOMALY   = 98.9374

EPHEMERIS_TYPE = 0
CLASSIFICATION_TYPE = U
NORAD_CAT_ID   = 67620
ELEMENT_SET_NO = 999
REV_AT_EPOCH   = 447
BSTAR          = .22566277E-2
MEAN_MOTION_DOT = .384887E-2
MEAN_MOTION_DDOT = 0

CCSDS_OMM_VERS = 2.0
CREATION_DATE  = 
ORIGINATOR     = 

OBJECT_NAME    = STARLINK-36615
OBJECT_ID      = 2026-020E
CENTER_NAME    = EARTH
REF_FRAME      = TEME
TIME_SYSTEM    = UTC
MEAN_ELEMENT_THEORY = SGP/SGP4

EPOCH          = 2026-02-27T20:00:01.999872
MEAN_MOTION    = 15.76282230
ECCENTRICITY   = .00017066
INCLINATION    = 42.9992
RA_OF_ASC_NODE = 201.4434
ARG_OF_PERICENTER = 276.1882
MEAN_ANOMALY   = 226.1005

EPHEMERIS_TYPE = 0
CLASSIFICATION_TYPE = U
NORAD_CAT_ID   = 67621
ELEMENT_SET_NO = 999
REV_AT_EPOCH   = 580
BSTAR          = .97181833E-3
MEAN_MOTION_DOT = .160192E-2
MEAN_MOTION_DDOT = 0

CCSDS_OMM_VERS = 2.0
CREATION_DATE  = 
ORIGINATOR     = 

OBJECT_NAME    = STARLINK-36614
OBJECT_ID      = 2026-020F
CENTER_NAME    = EARTH
REF_FRAME      = TEME
TIME_SYSTEM    = UTC
MEAN_ELEMENT_THEORY = SGP/SGP4

EPOCH          = 2026-02-27T18:58:58.323648
MEAN_MOTION    = 15.76434908
ECCENTRICITY   = .00013993
INCLINATION    = 42.9985
RA_OF_ASC_NODE = 202.3507
ARG_OF_PERICENTER = 277.7918
MEAN_ANOMALY   = 82.2793

EPHEMERIS_TYPE = 0
CLASSIFICATION_TYPE = U
NORAD_CAT_ID   = 67622
ELEMENT_SET_NO = 999
REV_AT_EPOCH   = 452
BSTAR          = .1358116E-2
MEAN_MOTION_DOT = .22739E-2
MEAN_MOTION_DDOT = 0

CCSDS_OMM_VERS = 2.0
CREATION_DATE  = 
ORIGINATOR     = 

OBJECT_NAME    = STARLINK-36600
OBJECT_ID      = 2026-020G
CENTER_NAME    = EARTH
REF_FRAME      = TEME
TIME_SYSTEM    = UTC
MEAN_ELEMENT_THEORY = SGP/SGP4

EPOCH          = 2026-02-27T19:02:07.435968
MEAN_MOTION    = 15.76449910
ECCENTRICITY   = .00016268
INCLINATION    = 42.9986
RA_OF_ASC_NODE = 202.3688
ARG_OF_PERICENTER = 293.9059
MEAN_ANOMALY   = 66.1640

EPHEMERIS_TYPE = 0
CLASSIFICATION_TYPE = U
NORAD_CAT_ID   = 67623
ELEMENT_SET_NO = 999
REV_AT_EPOCH   = 452
BSTAR          = .15094589E-2
MEAN_MOTION_DOT = .25375E-2
MEAN_MOTION_DDOT = 0

CCSDS_OMM_VERS = 2.0
CREATION_DATE  = 
ORIGINATOR     = 

OBJECT_NAME    = STARLINK-36439
OBJECT_ID      = 2026-020H
CENTER_NAME    = EARTH
REF_FRAME      = TEME
TIME_SYSTEM    = UTC
MEAN_ELEMENT_THEORY = SGP/SGP4

EPOCH          = 2026-02-27T17:15:07.188480
MEAN_MOTION    = 15.76474886
ECCENTRICITY   = .00022918
INCLINATION    = 43.0001
RA_OF_ASC_NODE = 202.6646
ARG_OF_PERICENTER = 290.0729
MEAN_ANOMALY   = 69.9894

EPHEMERIS_TYPE = 0
CLASSIFICATION_TYPE = U
NORAD_CAT_ID   = 67624
ELEMENT_SET_NO = 999
REV_AT_EPOCH   = 451
BSTAR          = .19955844E-2
MEAN_MOTION_DOT = .339458E-2
MEAN_MOTION_DDOT = 0

CCSDS_OMM_VERS = 2.0
CREATION_DATE  = 
ORIGINATOR     = 

OBJECT_NAME    = STARLINK-36438
OBJECT_ID      = 2026-020J
CENTER_NAME    = EARTH
REF_FRAME      = TEME
TIME_SYSTEM    = UTC
MEAN_ELEMENT_THEORY = SGP/SGP4

EPOCH          = 2026-02-27T17:24:34.375968
MEAN_MOTION    = 15.76474124
ECCENTRICITY   = .00037657
INCLINATION    = 43.0013
RA_OF_ASC_NODE = 202.7193
ARG_OF_PERICENTER = 285.2787
MEAN_ANOMALY   = 74.7666

EPHEMERIS_TYPE = 0
CLASSIFICATION_TYPE = U
NORAD_CAT_ID   = 67625
ELEMENT_SET_NO = 999
REV_AT_EPOCH   = 451
BSTAR          = .16089734E-2
MEAN_MOTION_DOT = .271418E-2
MEAN_MOTION_DDOT = 0

